{"type": "FeatureCollection", "features": [ {"type": "Feature", "properties": {"norad_id": 42738, "name": "QZS-2 (QZSS/PRN 194)", "group": "gnss", "lat": -9.074372175881104, "lon": -125.24349072704345, "alt_km": 34805.7397479579, "timestamp": "2025-12-17T23:38:07.096634+00:00", "meta": {"OBJECT_NAME": "QZS-2 (QZSS/PRN 194)", "OBJECT_ID": "2017-028A", "EPOCH": "2025-12-17T13:57:26.416800", "MEAN_MOTION": 1.00281777, "ECCENTRICITY": 0.07567645, "INCLINATION": 39.7061, "RA_OF_ASC_NODE": 245.8118, "ARG_OF_PERICENTER": 269.528, "MEAN_ANOMALY": 282.4506, "EPHEMERIS_TYPE": 0, "CLASSIFICATION_TYPE": "U", "NORAD_CAT_ID": 42738, "ELEMENT_SET_NO": 999, "REV_AT_EPOCH": 580, "BSTAR": 0, "MEAN_MOTION_DOT": -1.35e-06, "MEAN_MOTION_DDOT": 0}, "tle": {"line1": "1 42738U 17028A   25351.58155575 -.00000135  00000+0  00000+0 0  9997", "line2": "2 42738  39.7061 245.8118 0756764 269.5280 282.4506  1.00281777  5801"}}, "geometry": {"type": "Point", "coordinates": [-125.24349072704345, -9.074372175881104]}}, {"type": "Feature", "properties": {"norad_id": 42917, "name": "QZS-3 (QZSS/PRN 199)", "group": "gnss", "lat": -0.0022879962024144047, "lon": -151.61560376521484, "alt_km": 35784.46927804586, "timestamp": "2025-12-17T23:38:07.096647+00:00", "meta": {"OBJECT_NAME": "QZS-3 (QZSS/PRN 199)", "OBJECT_ID": "2017-048A", "EPOCH": "2025-12-17T14:02:14.399232", "MEAN_MOTION": 1.00267464, "ECCENTRICITY": 0.00017929, "INCLINATION": 0.0261, "RA_OF_ASC_NODE": 195.5765, "ARG_OF_PERICENTER": 80.6072, "MEAN_ANOMALY": 147.8743, "EPHEMERIS_TYPE": 0, "CLASSIFICATION_TYPE": "U", "NORAD_CAT_ID": 42917, "ELEMENT_SET_NO": 999, "REV_AT_EPOCH": 3043, "BSTAR": 0, "MEAN_MOTION_DOT": 0, "MEAN_MOTION_DDOT": 0}, "tle": {"line1": "1 42917U 17048A   25351.58488888  .00000000  00000+0  00000+0 0  9994", "line2": "2 42917   0.0261 195.5765 0001792  80.6072 147.8743  1.00267464 30438"}}, "geometry": {"type": "Point", "coordinates": [-151.61560376521484, -0.0022879962024144047]}}, {"type": "Feature", "properties": {"norad_id": 42939, "name": "COSMOS 2522 (752)", "group": "gnss", "lat": -2.916935663045462, "lon": -163.36621656604183, "alt_km": 19141.85299670246, "timestamp": "2025-12-17T23:38:07.096659+00:00", "meta": {"OBJECT_NAME": "COSMOS 2522 (752)", "OBJECT_ID": "2017-055A", "EPOCH": "2025-12-16T02:41:16.915776", "MEAN_MOTION": 2.13102063, "ECCENTRICITY": 0.00063883, "INCLINATION": 64.0761, "RA_OF_ASC_NODE": 198.1142, "ARG_OF_PERICENTER": 224.0896, "MEAN_ANOMALY": 135.9399, "EPHEMERIS_TYPE": 0, "CLASSIFICATION_TYPE": "U", "NORAD_CAT_ID": 42939, "ELEMENT_SET_NO": 999, "REV_AT_EPOCH": 6407, "BSTAR": 0, "MEAN_MOTION_DOT": 1.09e-06, "MEAN_MOTION_DDOT": 0}, "tle": {"line1": "1 42939U 17055A   25350.11200134  .00000109  00000+0  00000+0 0  9990", "line2": "2 42939  64.0761 198.1142 0006388 224.0896 135.9399  2.13102063 64079"}}, "geometry": {"type": "Point", "coordinates": [-163.36621656604183, -2.916935663045462]}}, {"type": "Feature", "properties": {"norad_id": 42965, "name": "QZS-4 (QZSS/PRN 195)", "group": "gnss", "lat": -27.45024836254629, "lon": -156.28695596921796, "alt_km": 33468.03722558987, "timestamp": "2025-12-17T23:38:07.096671+00:00", "meta": {"OBJECT_NAME": "QZS-4 (QZSS/PRN 195)", "OBJECT_ID": "2017-062A", "EPOCH": "2025-12-17T08:17:14.417664", "MEAN_MOTION": 1.00251906, "ECCENTRICITY": 0.07515772, "INCLINATION": 40.2235, "RA_OF_ASC_NODE": 345.8121, "ARG_OF_PERICENTER": 271.6478, "MEAN_ANOMALY": 89.0979, "EPHEMERIS_TYPE": 0, "CLASSIFICATION_TYPE": "U", "NORAD_CAT_ID": 42965, "ELEMENT_SET_NO": 999, "REV_AT_EPOCH": 2998, "BSTAR": 0, "MEAN_MOTION_DOT": -3.43e-06, "MEAN_MOTION_DDOT": 0}, "tle": {"line1": "1 42965U 17062A   25351.34530576 -.00000343  00000+0  00000+0 0  9990", "line2": "2 42965  40.2235 345.8121 0751577 271.6478  89.0979  1.00251906 29989"}}, "geometry": {"type": "Point", "coordinates": [-156.28695596921796, -27.45024836254629]}}, {"type": "Feature", "properties": {"norad_id": 43001, "name": "BEIDOU-3 M1 (C19)", "group": "gnss", "lat": -39.424377086461924, "lon": -78.03888660244878, "alt_km": 21525.158353286202, "timestamp": "2025-12-17T23:38:07.096684+00:00", "meta": {"OBJECT_NAME": "BEIDOU-3 M1 (C19)", "OBJECT_ID": "2017-069A", "EPOCH": "2025-12-17T02:31:31.300896", "MEAN_MOTION": 1.86231373, "ECCENTRICITY": 0.00093891, "INCLINATION": 56.5309, "RA_OF_ASC_NODE": 69.0894, "ARG_OF_PERICENTER": 302.653, "MEAN_ANOMALY": 57.2803, "EPHEMERIS_TYPE": 0, "CLASSIFICATION_TYPE": "U", "NORAD_CAT_ID": 43001, "ELEMENT_SET_NO": 999, "REV_AT_EPOCH": 5521, "BSTAR": 0, "MEAN_MOTION_DOT": -7.5e-07, "MEAN_MOTION_DDOT": 0}, "tle": {"line1": "1 43001U 17069A   25351.10522339 -.00000075  00000+0  00000+0 0  9993", "line2": "2 43001  56.5309  69.0894 0009389 302.6530  57.2803  1.86231373 55214"}}, "geometry": {"type": "Point", "coordinates": [-78.03888660244878, -39.424377086461924]}}, {"type": "Feature", "properties": {"norad_id": 43002, "name": "BEIDOU-3 M2 (C20)", "group": "gnss", "lat": -56.543476405584435, "lon": -19.163559117608674, "alt_km": 21525.07560959764, "timestamp": "2025-12-17T23:38:07.096695+00:00", "meta": {"OBJECT_NAME": "BEIDOU-3 M2 (C20)", "OBJECT_ID": "2017-069B", "EPOCH": "2025-12-17T13:55:59.807712", "MEAN_MOTION": 1.86230965, "ECCENTRICITY": 0.00064552, "INCLINATION": 56.531, "RA_OF_ASC_NODE": 69.1097, "ARG_OF_PERICENTER": 330.9303, "MEAN_ANOMALY": 29.0595, "EPHEMERIS_TYPE": 0, "CLASSIFICATION_TYPE": "U", "NORAD_CAT_ID": 43002, "ELEMENT_SET_NO": 999, "REV_AT_EPOCH": 5521, "BSTAR": 0, "MEAN_MOTION_DOT": -7.1e-07, "MEAN_MOTION_DDOT": 0}, "tle": {"line1": "1 43002U 17069B   25351.58055333 -.00000071  00000+0  00000+0 0  9997", "line2": "2 43002  56.5310  69.1097 0006455 330.9303  29.0595  1.86230965 55217"}}, "geometry": {"type": "Point", "coordinates": [-19.163559117608674, -56.543476405584435]}}, {"type": "Feature", "properties": {"norad_id": 43055, "name": "GSAT0215 (GALILEO 19)", "group": "gnss", "lat": 34.17535699704236, "lon": 18.270873510602712, "alt_km": 23221.12772305539, "timestamp": "2025-12-17T23:38:07.096722+00:00", "meta": {"OBJECT_NAME": "GSAT0215 (GALILEO 19)", "OBJECT_ID": "2017-079A", "EPOCH": "2025-12-11T21:30:24.060384", "MEAN_MOTION": 1.704739, "ECCENTRICITY": 0.00012658, "INCLINATION": 55.1303, "RA_OF_ASC_NODE": 226.661, "ARG_OF_PERICENTER": 350.6161, "MEAN_ANOMALY": 9.46, "EPHEMERIS_TYPE": 0, "CLASSIFICATION_TYPE": "U", "NORAD_CAT_ID": 43055, "ELEMENT_SET_NO": 999, "REV_AT_EPOCH": 4979, "BSTAR": 0, "MEAN_MOTION_DOT": 1.3e-07, "MEAN_MOTION_DDOT": 0}, "tle": {"line1": "1 43055U 17079A   25345.89611181  .00000013  00000+0  00000+0 0  9997", "line2": "2 43055  55.1303 226.6610 0001265 350.6161   9.4600  1.70473900 49794"}}, "geometry": {"type": "Point", "coordinates": [18.270873510602712, 34.17535699704236]}}, {"type": "Feature", "properties": {"norad_id": 43056, "name": "GSAT0216 (GALILEO 20)", "group": "gnss", "lat": -33.31884356174161, "lon": -160.75365558783886, "alt_km": 23219.182892761797, "timestamp": "2025-12-17T23:38:07.096744+00:00", "meta": {"OBJECT_NAME": "GSAT0216 (GALILEO 20)", "OBJECT_ID": "2017-079B", "EPOCH": "2025-12-16T21:07:19.515072", "MEAN_MOTION": 1.70474167, "ECCENTRICITY": 0.00024195, "INCLINATION": 55.129, "RA_OF_ASC_NODE": 226.5236, "ARG_OF_PERICENTER": 322.2527, "MEAN_ANOMALY": 37.829, "EPHEMERIS_TYPE": 0, "CLASSIFICATION_TYPE": "U", "NORAD_CAT_ID": 43056, "ELEMENT_SET_NO": 999, "REV_AT_EPOCH": 4989, "BSTAR": 0, "MEAN_MOTION_DOT": 5.3e-07, "MEAN_MOTION_DDOT": 0}, "tle": {"line1": "1 43056U 17079B   25350.88008698  .00000053  00000+0  00000+0 0  9990", "line2": "2 43056  55.1290 226.5236 0002419 322.2527  37.8290  1.70474167 49893"}}, "geometry": {"type": "Point", "coordinates": [-160.75365558783886, -33.31884356174161]}}, {"type": "Feature", "properties": {"norad_id": 43057, "name": "GSAT0217 (GALILEO 21)", "group": "gnss", "lat": -2.0996079869492297, "lon": 47.9663158047832, "alt_km": 23230.686105070086, "timestamp": "2025-12-17T23:38:07.096768+00:00", "meta": {"OBJECT_NAME": "GSAT0217 (GALILEO 21)", "OBJECT_ID": "2017-079C", "EPOCH": "2025-12-16T12:20:28.313376", "MEAN_MOTION": 1.70474073, "ECCENTRICITY": 0.00027918, "INCLINATION": 55.1271, "RA_OF_ASC_NODE": 226.5317, "ARG_OF_PERICENTER": 347.0782, "MEAN_ANOMALY": 13.0112, "EPHEMERIS_TYPE": 0, "CLASSIFICATION_TYPE": "U", "NORAD_CAT_ID": 43057, "ELEMENT_SET_NO": 999, "REV_AT_EPOCH": 4987, "BSTAR": 0, "MEAN_MOTION_DOT": 5e-07, "MEAN_MOTION_DDOT": 0}, "tle": {"line1": "1 43057U 17079C   25350.51421659  .00000050  00000+0  00000+0 0  9994", "line2": "2 43057  55.1271 226.5317 0002791 347.0782  13.0112  1.70474073 49877"}}, "geometry": {"type": "Point", "coordinates": [47.9663158047832, -2.0996079869492297]}}, {"type": "Feature", "properties": {"norad_id": 43058, "name": "GSAT0218 (GALILEO 22)", "group": "gnss", "lat": 37.221325688271094, "lon": -101.54208994779583, "alt_km": 23219.245123715395, "timestamp": "2025-12-17T23:38:07.096789+00:00", "meta": {"OBJECT_NAME": "GSAT0218 (GALILEO 22)", "OBJECT_ID": "2017-079D", "EPOCH": "2025-12-12T15:04:31.769472", "MEAN_MOTION": 1.70474063, "ECCENTRICITY": 0.00028411, "INCLINATION": 55.1287, "RA_OF_ASC_NODE": 226.6365, "ARG_OF_PERICENTER": 306.3289, "MEAN_ANOMALY": 53.7237, "EPHEMERIS_TYPE": 0, "CLASSIFICATION_TYPE": "U", "NORAD_CAT_ID": 43058, "ELEMENT_SET_NO": 999, "REV_AT_EPOCH": 4983, "BSTAR": 0, "MEAN_MOTION_DOT": 1.7e-07, "MEAN_MOTION_DDOT": 0}, "tle": {"line1": "1 43058U 17079D   25346.62814548  .00000017  00000+0  00000+0 0  9998", "line2": "2 43058  55.1287 226.6365 0002841 306.3289  53.7237  1.70474063 49839"}}, "geometry": {"type": "Point", "coordinates": [-101.54208994779583, 37.221325688271094]}}]}